     2.100          NAVIGATION                              RINEX VERSION / TYPE
fic2rin                                 02/24/2013 00:30:18 PGM / RUN BY / DATE
                                                            END OF HEADER
 1 13  2 23 20  0  0.0  .265985727310D-05  .284217094304D-11  .000000000000D+00
     .960000000000D+02  .144062500000D+02  .435018120251D-08  .141868454360D+01
     .605359673500D-06  .162029801868D-02  .109206885099D-04  .515370985985D+04
     .590400000000D+06 -.260770320892D-07  .286513332373D+00  .149011611938D-07
     .960663353542D+00  .167312500000D+03  .398244851994D+00 -.790747223510D-08
     .474305471012D-09  .100000000000D+01  .172800000000D+04  .000000000000D+00
     .240000000000D+01  .000000000000D+00  .838190317154D-08  .960000000000D+02
     .583206000000D+06  .400000000000D+01
 2 13  2 23 20  0  0.0  .419759657234D-03  .159161572810D-11  .000000000000D+00
     .900000000000D+02  .956250000000D+01  .472698261209D-08  .231505598740D+01
     .586733222008D-06  .120554363821D-01  .118929892778D-04  .515362092972D+04
     .590400000000D+06 -.271946191788D-06  .266890966406D+00 -.670552253723D-07
     .939184230004D+00  .135468750000D+03 -.266181089504D+01 -.802819154926D-08
     .567880797372D-09  .100000000000D+01  .172800000000D+04  .000000000000D+00
     .240000000000D+01  .000000000000D+00 -.176951289177D-07  .900000000000D+02
     .583206000000D+06  .400000000000D+01
 3 13  2 23 20  0  0.0  .172356609255D-03  .500222085975D-11  .000000000000D+00
     .350000000000D+02 -.110187500000D+03  .493091967831D-08  .247752177372D+01
    -.578351318836D-05  .159982691985D-01  .586174428463D-05  .515368423080D+04
     .590400000000D+06  .167638063431D-06 -.901059312120D+00 -.147148966789D-06
     .933559277805D+00  .250531250000D+03  .126989379217D+01 -.818605526777D-08
    -.306798493674D-09  .100000000000D+01  .172800000000D+04  .000000000000D+00
     .240000000000D+01  .000000000000D+00 -.465661287308D-08  .350000000000D+02
     .583206000000D+06  .400000000000D+01
 4 13  2 23 20  0  0.0  .143297482282D-03  .110276232590D-10  .000000000000D+00
     .290000000000D+02  .177812500000D+02  .484877339945D-08 -.722151052193D+00
     .119023025036D-05  .103557207622D-01  .112019479275D-04  .515375695038D+04
     .590400000000D+06  .298023223877D-07  .283433032546D+00  .223517417908D-06
     .938215195995D+00  .151968750000D+03  .960600221312D+00 -.828784522202D-08
     .560380484954D-09  .100000000000D+01  .172800000000D+04  .000000000000D+00
     .240000000000D+01  .000000000000D+00 -.605359673500D-08  .290000000000D+02
     .583206000000D+06  .400000000000D+01
 5 13  2 23 20  0  0.0 -.385115388781D-03 -.170530256582D-11  .000000000000D+00
     .200000000000D+02  .153750000000D+02  .536236622122D-08 -.189904975338D+01
     .551342964172D-06  .306925317273D-02  .440888106823D-05  .515355542183D+04
     .590400000000D+06  .279396772385D-07  .133152921092D+01 -.502914190292D-07
     .948889433351D+00  .287218750000D+03  .318117746424D+00 -.850392565121D-08
     .220366321999D-09  .100000000000D+01  .172800000000D+04  .000000000000D+00
     .240000000000D+01  .000000000000D+00 -.102445483208D-07  .200000000000D+02
     .583206000000D+06  .400000000000D+01
 6 13  2 23 20  0  0.0  .339324586093D-03 -.147792889038D-10  .000000000000D+00
     .400000000000D+02 -.105031250000D+03  .482734393539D-08 -.192526383657D+01
    -.541098415852D-05  .778240896761D-02  .732764601707D-05  .515368975449D+04
     .590400000000D+06 -.134110450745D-06 -.822281540744D+00 -.279396772385D-07
     .940309613384D+00  .230187500000D+03 -.378843398360D+00 -.834213319762D-08
    -.196793911542D-09  .100000000000D+01  .172800000000D+04  .000000000000D+00
     .240000000000D+01  .000000000000D+00 -.512227416039D-08  .400000000000D+02
     .583206000000D+06  .400000000000D+01
 7 13  2 23 20  0  0.0  .184051692486D-03  .432009983342D-11  .000000000000D+00
     .530000000000D+02  .957500000000D+02  .408195574413D-08  .916021728096D+00
     .510737299919D-05  .608836591709D-02  .960566103458D-05  .515371068001D+04
     .590400000000D+06  .298023223877D-07 -.283618775744D+01  .912696123123D-07
     .975989524098D+00  .199781250000D+03 -.292636239650D+01 -.789032866386D-08
     .582167106740D-10  .100000000000D+01  .172800000000D+04  .000000000000D+00
     .240000000000D+01  .000000000000D+00 -.107102096081D-07  .530000000000D+02
     .583206000000D+06  .400000000000D+01
 8 13  2 23 20  0  0.0  .478792935610D-05  .227373675443D-12  .000000000000D+00
     .230000000000D+02  .101312500000D+03  .363015121037D-08  .351762038815D+00
     .529736280441D-05  .127314138226D-01  .906735658646D-05  .515360351753D+04
     .590400000000D+06  .178813934326D-06 -.274702560252D+01  .117346644402D-06
     .998555984905D+00  .221000000000D+03 -.288107627811D+01 -.780461080765D-08
     .155006456641D-09  .100000000000D+01  .172800000000D+04  .000000000000D+00
     .340000000000D+01  .000000000000D+00 -.419095158577D-08  .230000000000D+02
     .583206000000D+06  .400000000000D+01
 9 13  2 23 20  0  0.0  .222687143832D-03  .261479726760D-11  .000000000000D+00
     .132000000000D+03  .971250000000D+02  .388980488313D-08  .102147663720D+01
     .481307506561D-05  .171179581666D-01  .108685344458D-04  .515282089996D+04
     .590400000000D+06 -.238418579102D-06 -.286001876610D+01 -.253319740295D-06
     .984654758000D+00  .185406250000D+03  .163876451163D+01 -.795140263641D-08
     .147506144223D-09  .100000000000D+01  .172800000000D+04  .000000000000D+00
     .240000000000D+01  .000000000000D+00 -.558793544769D-08  .132000000000D+03
     .583206000000D+06  .400000000000D+01
11 13  2 23 20  0  0.0 -.356394331902D-03 -.363797880709D-11  .000000000000D+00
     .670000000000D+02 -.250000000000D+02  .595417658678D-08  .112178653802D+01
    -.132247805595D-05  .138367802138D-01  .115446746349D-04  .515369190598D+04
     .590400000000D+06 -.249594449997D-06 -.340349646643D-02 -.931322574615D-08
     .889193118371D+00  .120906250000D+03  .114637680994D+01 -.886394064728D-08
     .188222125921D-09  .100000000000D+01  .172800000000D+04  .000000000000D+00
     .240000000000D+01  .000000000000D+00 -.116415321827D-07  .670000000000D+02
     .583206000000D+06  .400000000000D+01
13 13  2 23 20  0  0.0  .142474193126D-03 -.295585778076D-11  .000000000000D+00
     .106000000000D+03 -.160937500000D+02  .409588489576D-08 -.288883952646D+01
    -.774860382080D-06  .502753967885D-02  .102557241917D-04  .515354935074D+04
     .590400000000D+06  .260770320892D-07  .247962882780D+01  .115483999252D-06
     .982562390159D+00  .194718750000D+03  .207108566743D+01 -.763888961899D-08
    -.451090218290D-09  .100000000000D+01  .172800000000D+04  .000000000000D+00
     .240000000000D+01  .000000000000D+00 -.111758708954D-07  .106000000000D+03
     .583206000000D+06  .400000000000D+01
14 13  2 23 20  0  0.0  .220660585910D-03  .227373675443D-12  .000000000000D+00
     .104000000000D+03 -.333125000000D+02  .421588989445D-08 -.277322550125D+01
    -.159069895744D-05  .668444565963D-02  .101234763861D-04  .515371145058D+04
     .590400000000D+06  .856816768646D-07  .245104113662D+01 -.651925802231D-07
     .975251830102D+00  .189968750000D+03 -.202320160987D+01 -.770532095755D-08
    -.505021036153D-09  .100000000000D+01  .172800000000D+04  .000000000000D+00
     .340000000000D+01  .000000000000D+00 -.884756445885D-08  .104000000000D+03
     .583206000000D+06  .400000000000D+01
15 13  2 23 20  0  0.0 -.109363812953D-03 -.125055521494D-11  .000000000000D+00
     .420000000000D+02 -.410937500000D+02  .509556939378D-08  .301718956724D+01
    -.209547579288D-05  .533993507270D-02  .977143645287D-05  .515371607018D+04
     .590400000000D+06 -.763684511185D-07  .235424670547D+01 -.465661287308D-07
     .941837335808D+00  .181250000000D+03  .146026231242D+00 -.815498254490D-08
    -.576095425258D-09  .100000000000D+01  .172800000000D+04  .000000000000D+00
     .240000000000D+01  .000000000000D+00 -.102445483208D-07  .420000000000D+02
     .583206000000D+06  .400000000000D+01
16 13  2 23 20  0  0.0 -.252477359027D-03 -.113686837722D-12  .000000000000D+00
     .910000000000D+02  .107187500000D+02  .425839166482D-08 -.157303860717D+01
     .527128577232D-06  .697841355577D-02  .224635004997D-05  .515358639145D+04
     .590400000000D+06 -.931322574615D-08 -.175986123196D+01 -.800937414169D-07
     .983456310640D+00  .349593750000D+03  .362486245064D-01 -.820212736581D-08
     .903609067516D-10  .100000000000D+01  .172800000000D+04  .000000000000D+00
     .240000000000D+01  .000000000000D+00 -.977888703346D-08  .910000000000D+02
     .583206000000D+06  .400000000000D+01
17 13  2 23 20  0  0.0  .466764904559D-04 -.386535248253D-11  .000000000000D+00
     .460000000000D+02 -.117656250000D+03  .411374278247D-08 -.263534035061D+01
    -.604428350925D-05  .819715287071D-02  .909343361855D-05  .515359820747D+04
     .590400000000D+06  .484287738800D-07 -.721552472928D+00 -.689178705215D-07
     .964846393702D+00  .204093750000D+03 -.222112284846D+01 -.784818405122D-08
    -.237509893240D-09  .100000000000D+01  .172800000000D+04  .000000000000D+00
     .240000000000D+01  .000000000000D+00 -.102445483208D-07  .460000000000D+02
     .583206000000D+06  .400000000000D+01
18 13  2 23 20  0  0.0  .240871682763D-03  .181898940355D-11  .000000000000D+00
     .190000000000D+02  .190000000000D+02  .585167231707D-08 -.111353167605D+01
     .128149986267D-05  .137783652171D-01  .392645597458D-05  .515375547791D+04
     .590400000000D+06  .176951289177D-06  .133608126778D+01  .314787030220D-06
     .927517530005D+00  .284406250000D+03 -.212571477797D+01 -.880500962114D-08
     .188579283656D-09  .100000000000D+01  .172800000000D+04  .000000000000D+00
     .240000000000D+01  .000000000000D+00 -.107102096081D-07  .190000000000D+02
     .583206000000D+06  .400000000000D+01
